{
  "norad_id": 68345,
  "name": "STARLINK-37214",
  "history": [
    {
      "epoch": "2026-03-31T16:00:01.999584Z",
      "apogee_km": 320.12918393943437,
      "perigee_km": 319.33749566526876,
      "latitude_deg": -36.77828305323333,
      "longitude_deg": 149.6489248014836,
      "height_km": 331.7312680922715,
      "semi_major_axis_km": 6697.870339802351,
      "eccentricity": 5.91e-05,
      "inclination_deg": 53.1593,
      "raan_deg": 252.5383,
      "arg_perigee_deg": 65.4106,
      "mean_anomaly_deg": 246.4881,
      "mean_motion_rev_day": 15.83790224
    }
  ]
}